{
    "links": {
        "self": "http://www.neowsapp.com/rest/v1/neo/3612644?api_key=iIulBulltgU6a56xZRHN4H3l9WmuAYTsLGpBGhQ2"
    },
    "id": "3612644",
    "neo_reference_id": "3612644",
    "name": "(2012 UQ18)",
    "designation": "2012 UQ18",
    "nasa_jpl_url": "http://ssd.jpl.nasa.gov/sbdb.cgi?sstr=3612644",
    "absolute_magnitude_h": 24.0,
    "estimated_diameter": {
        "kilometers": {
            "estimated_diameter_min": 0.0421264611,
            "estimated_diameter_max": 0.0941976306
        },
        "meters": {
            "estimated_diameter_min": 42.1264610556,
            "estimated_diameter_max": 94.1976305719
        },
        "miles": {
            "estimated_diameter_min": 0.0261761612,
            "estimated_diameter_max": 0.0585316759
        },
        "feet": {
            "estimated_diameter_min": 138.2101784897,
            "estimated_diameter_max": 309.0473542854
        }
    },
    "is_potentially_hazardous_asteroid": false,
    "close_approach_data": [
        {
            "close_approach_date": "2012-10-30",
            "close_approach_date_full": "2012-Oct-30 00:55",
            "epoch_date_close_approach": 1351558500000,
            "relative_velocity": {
                "kilometers_per_second": "8.0064285033",
                "kilometers_per_hour": "28823.1426117975",
                "miles_per_hour": "17909.5799189805"
            },
            "miss_distance": {
                "astronomical": "0.0983854156",
                "lunar": "38.2719266684",
                "kilometers": "14718248.612824772",
                "miles": "9145495.6057429736"
            },
            "orbiting_body": "Earth"
        }
    ],
    "orbital_data": {
        "orbit_id": "12",
        "orbit_determination_date": "2017-04-06 08:48:26",
        "first_observation_date": "2012-10-17",
        "last_observation_date": "2012-11-19",
        "data_arc_in_days": 33,
        "observations_used": 39,
        "orbit_uncertainty": "7",
        "minimum_orbit_intersection": ".0993357",
        "jupiter_tisserand_invariant": "3.924",
        "epoch_osculation": "2459000.5",
        "eccentricity": ".4083499270215465",
        "semi_major_axis": "1.813288036585192",
        "inclination": "11.94658050607379",
        "ascending_node_longitude": "28.78909695850127",
        "orbital_period": "891.86397373247",
        "perihelion_distance": "1.072831999176586",
        "perihelion_argument": "25.433471604456",
        "aphelion_distance": "2.553744073993799",
        "perihelion_time": "2458922.440662369817",
        "mean_anomaly": "31.50857347590923",
        "mean_motion": ".4036489987294724",
        "equinox": "J2000",
        "orbit_class": {
            "orbit_class_type": "AMO",
            "orbit_class_description": "Near-Earth asteroid orbits similar to that of 1221 Amor",
            "orbit_class_range": "1.017 AU < q (perihelion) < 1.3 AU"
        }
    },
    "is_sentry_object": false
}